[{"OBJECT_NAME":"STARLINK-11158 [DTC]","OBJECT_ID":"2024-141F","EPOCH":"2026-03-09T08:14:10.387392","MEAN_MOTION":15.69702491,"ECCENTRICITY":0.00011489,"INCLINATION":53.1592,"RA_OF_ASC_NODE":88.3233,"ARG_OF_PERICENTER":88.9611,"MEAN_ANOMALY":271.1539,"EPHEMERIS_TYPE":0,"CLASSIFICATION_TYPE":"U","NORAD_CAT_ID":60403,"ELEMENT_SET_NO":999,"REV_AT_EPOCH":9163,"BSTAR":1.3073981e-5,"MEAN_MOTION_DOT":9.95e-6,"MEAN_MOTION_DDOT":0},{"OBJECT_NAME":"FENGYUN 1C DEB","OBJECT_ID":"1999-025CUE","EPOCH":"2026-02-18T09:12:07.487136","MEAN_MOTION":15.64460458,"ECCENTRICITY":0.00384301,"INCLINATION":98.1181,"RA_OF_ASC_NODE":202.4936,"ARG_OF_PERICENTER":104.8925,"MEAN_ANOMALY":255.6593,"EPHEMERIS_TYPE":0,"CLASSIFICATION_TYPE":"U","NORAD_CAT_ID":32184,"ELEMENT_SET_NO":999,"REV_AT_EPOCH":99453,"BSTAR":0.002023567,"MEAN_MOTION_DOT":0.00206139,"MEAN_MOTION_DDOT":0}]
